COSMOS 2251 DEB         
1 37966U 93036BPR 26087.03280518  .00147758  00000+0  47911-2 0  9997
2 37966  73.9839   8.8399 0017253 188.8203 171.2700 15.31167282869420
COSMOS 2251 DEB         
1 37967U 93036BPS 26092.55657349  .00004959  00000+0  13389-2 0  9998
2 37967  74.0132 291.8667 0148103  44.3673 316.9237 14.41762815663324
COSMOS 2251 DEB         
1 37968U 93036BPT 26087.57951203  .00010750  00000+0  74656-3 0  9992
2 37968  73.9990  54.8801 0076477 146.4448 214.1620 15.03228737618087
COSMOS 2251 DEB         
1 37971U 93036BPW 26091.98213343  .00007634  00000+0  19100-2 0  9991
2 37971  73.9919 194.3363 0067449 304.2926  55.1860 14.50239846622751
COSMOS 2251 DEB         
1 37975U 93036BQA 26092.28955178  .00033041  00000+0  39323-2 0  9998
2 37975  73.9971 106.0893 0076144  67.4032 293.5177 14.82129939713801
COSMOS 2251 DEB         
1 37985U 93036BQL 26092.64266810  .00000125  00000+0  52555-4 0  9998
2 37985  74.0246  62.1720 0021165 164.2674 195.9141 14.35519976665085
COSMOS 2251 DEB         
1 37988U 93036BQP 26093.60342206  .00009446  00000+0  15148-2 0  9992
2 37988  74.0621 167.5657 0062200 179.5107 180.6137 14.70489523250392
COSMOS 2251 DEB         
1 37993U 93036BQU 26092.89284503  .00007501  00000+0  15141-2 0  9996
2 37993  74.0222 314.3853 0019495  17.2917 342.8909 14.61459056669403
COSMOS 2251 DEB         
1 37994U 93036BQV 26094.28610033  .00001505  00000+0  48583-3 0  9998
2 37994  74.0351  67.8127 0021906 127.1746 233.1414 14.39890101786848
COSMOS 2251 DEB         
1 37998U 93036BQZ 26085.19170970  .00001795  00000+0  51100-3 0  9993
2 37998  74.0376  42.1799 0017406  98.1937 262.1197 14.45933524657828
COSMOS 2251 DEB         
1 38001U 93036BRC 26093.26241189  .00008686  00000+0  11019-2 0  9997
2 38001  73.9977 272.2333 0062557  33.7163 143.0456 14.80440796763570
COSMOS 2251 DEB         
1 38054U 93036BRL 26093.93354940  .00007527  00000+0  63949-2 0  9991
2 38054  73.9525  82.1296 0347616  37.8068 350.4921 13.63132656687089
COSMOS 2251 DEB         
1 38055U 93036BRM 26091.47317309  .00005739  00000+0  76426-3 0  9995
2 38055  74.0113 351.0008 0062949  93.2352  84.0530 14.78505576623032
COSMOS 2251 DEB         
1 38056U 93036BRN 26090.99141433  .00006537  00000+0  39619-2 0  9994
2 38056  73.9174  88.9457 0272786  54.3440 308.2756 13.89704747657917
COSMOS 2251 DEB         
1 38060U 93036BRS 26093.36980209  .00003669  00000+0  68057-3 0  9997
2 38060  74.0402  80.9286 0058440 161.6946 198.6345 14.64510038735983
COSMOS 2251 DEB         
1 38062U 93036BRU 26093.27198209  .00054588  00000+0  42024-2 0  9991
2 38062  74.0062  64.0797 0016452 190.6846 236.4671 15.01277775647003
