[{"OBJECT_NAME":"COSMOS 2251 DEB","OBJECT_ID":"1993-036BPR","EPOCH":"2026-03-28T00:47:14.367552","MEAN_MOTION":15.31167282,"ECCENTRICITY":0.00172533,"INCLINATION":73.9839,"RA_OF_ASC_NODE":8.8399,"ARG_OF_PERICENTER":188.8203,"MEAN_ANOMALY":171.27,"EPHEMERIS_TYPE":0,"CLASSIFICATION_TYPE":"U","NORAD_CAT_ID":37966,"ELEMENT_SET_NO":999,"REV_AT_EPOCH":86942,"BSTAR":0.0047910735,"MEAN_MOTION_DOT":0.00147758,"MEAN_MOTION_DDOT":0},{"OBJECT_NAME":"COSMOS 2251 DEB","OBJECT_ID":"1993-036BPS","EPOCH":"2026-04-02T13:21:27.949536","MEAN_MOTION":14.41762815,"ECCENTRICITY":0.01481032,"INCLINATION":74.0132,"RA_OF_ASC_NODE":291.8667,"ARG_OF_PERICENTER":44.3673,"MEAN_ANOMALY":316.9237,"EPHEMERIS_TYPE":0,"CLASSIFICATION_TYPE":"U","NORAD_CAT_ID":37967,"ELEMENT_SET_NO":999,"REV_AT_EPOCH":66332,"BSTAR":0.0013389116,"MEAN_MOTION_DOT":4.959e-5,"MEAN_MOTION_DDOT":0},{"OBJECT_NAME":"COSMOS 2251 DEB","OBJECT_ID":"1993-036BPT","EPOCH":"2026-03-28T13:54:29.839392","MEAN_MOTION":15.03228737,"ECCENTRICITY":0.0076477,"INCLINATION":73.999,"RA_OF_ASC_NODE":54.8801,"ARG_OF_PERICENTER":146.4448,"MEAN_ANOMALY":214.162,"EPHEMERIS_TYPE":0,"CLASSIFICATION_TYPE":"U","NORAD_CAT_ID":37968,"ELEMENT_SET_NO":999,"REV_AT_EPOCH":61808,"BSTAR":0.00074656,"MEAN_MOTION_DOT":0.0001075,"MEAN_MOTION_DDOT":0},{"OBJECT_NAME":"COSMOS 2251 DEB","OBJECT_ID":"1993-036BPW","EPOCH":"2026-04-01T23:34:16.328352","MEAN_MOTION":14.50239846,"ECCENTRICITY":0.00674491,"INCLINATION":73.9919,"RA_OF_ASC_NODE":194.3363,"ARG_OF_PERICENTER":304.2926,"MEAN_ANOMALY":55.186,"EPHEMERIS_TYPE":0,"CLASSIFICATION_TYPE":"U","NORAD_CAT_ID":37971,"ELEMENT_SET_NO":999,"REV_AT_EPOCH":62275,"BSTAR":0.0019100322,"MEAN_MOTION_DOT":7.634e-5,"MEAN_MOTION_DDOT":0},{"OBJECT_NAME":"COSMOS 2251 DEB","OBJECT_ID":"1993-036BQA","EPOCH":"2026-04-02T06:56:57.273792","MEAN_MOTION":14.82129939,"ECCENTRICITY":0.0076144,"INCLINATION":73.9971,"RA_OF_ASC_NODE":106.0893,"ARG_OF_PERICENTER":67.4032,"MEAN_ANOMALY":293.5177,"EPHEMERIS_TYPE":0,"CLASSIFICATION_TYPE":"U","NORAD_CAT_ID":37975,"ELEMENT_SET_NO":999,"REV_AT_EPOCH":71380,"BSTAR":0.0039322742,"MEAN_MOTION_DOT":0.00033041,"MEAN_MOTION_DDOT":0},{"OBJECT_NAME":"COSMOS 2251 DEB","OBJECT_ID":"1993-036BQL","EPOCH":"2026-04-02T15:25:26.523840","MEAN_MOTION":14.35519976,"ECCENTRICITY":0.00211652,"INCLINATION":74.0246,"RA_OF_ASC_NODE":62.172,"ARG_OF_PERICENTER":164.2674,"MEAN_ANOMALY":195.9141,"EPHEMERIS_TYPE":0,"CLASSIFICATION_TYPE":"U","NORAD_CAT_ID":37985,"ELEMENT_SET_NO":999,"REV_AT_EPOCH":66508,"BSTAR":5.2555081e-5,"MEAN_MOTION_DOT":1.25e-6,"MEAN_MOTION_DDOT":0},{"OBJECT_NAME":"COSMOS 2251 DEB","OBJECT_ID":"1993-036BQP","EPOCH":"2026-04-03T14:28:55.665984","MEAN_MOTION":14.70489523,"ECCENTRICITY":0.00622,"INCLINATION":74.0621,"RA_OF_ASC_NODE":167.5657,"ARG_OF_PERICENTER":179.5107,"MEAN_ANOMALY":180.6137,"EPHEMERIS_TYPE":0,"CLASSIFICATION_TYPE":"U","NORAD_CAT_ID":37988,"ELEMENT_SET_NO":999,"REV_AT_EPOCH":25039,"BSTAR":0.0015148,"MEAN_MOTION_DOT":9.446e-5,"MEAN_MOTION_DDOT":0},{"OBJECT_NAME":"COSMOS 2251 DEB","OBJECT_ID":"1993-036BQU","EPOCH":"2026-04-02T21:25:41.810592","MEAN_MOTION":14.61459056,"ECCENTRICITY":0.00194958,"INCLINATION":74.0222,"RA_OF_ASC_NODE":314.3853,"ARG_OF_PERICENTER":17.2917,"MEAN_ANOMALY":342.8909,"EPHEMERIS_TYPE":0,"CLASSIFICATION_TYPE":"U","NORAD_CAT_ID":37993,"ELEMENT_SET_NO":999,"REV_AT_EPOCH":66940,"BSTAR":0.0015141037,"MEAN_MOTION_DOT":7.501e-5,"MEAN_MOTION_DDOT":0},{"OBJECT_NAME":"COSMOS 2251 DEB","OBJECT_ID":"1993-036BQV","EPOCH":"2026-04-04T06:51:59.068512","MEAN_MOTION":14.39890101,"ECCENTRICITY":0.00219062,"INCLINATION":74.0351,"RA_OF_ASC_NODE":67.8127,"ARG_OF_PERICENTER":127.1746,"MEAN_ANOMALY":233.1414,"EPHEMERIS_TYPE":0,"CLASSIFICATION_TYPE":"U","NORAD_CAT_ID":37994,"ELEMENT_SET_NO":999,"REV_AT_EPOCH":78684,"BSTAR":0.00048583371,"MEAN_MOTION_DOT":1.505e-5,"MEAN_MOTION_DDOT":0},{"OBJECT_NAME":"COSMOS 2251 DEB","OBJECT_ID":"1993-036BQZ","EPOCH":"2026-03-26T04:36:03.718080","MEAN_MOTION":14.45933524,"ECCENTRICITY":0.00174062,"INCLINATION":74.0376,"RA_OF_ASC_NODE":42.1799,"ARG_OF_PERICENTER":98.1937,"MEAN_ANOMALY":262.1197,"EPHEMERIS_TYPE":0,"CLASSIFICATION_TYPE":"U","NORAD_CAT_ID":37998,"ELEMENT_SET_NO":999,"REV_AT_EPOCH":65782,"BSTAR":0.00051099848,"MEAN_MOTION_DOT":1.795e-5,"MEAN_MOTION_DDOT":0},{"OBJECT_NAME":"COSMOS 2251 DEB","OBJECT_ID":"1993-036BRC","EPOCH":"2026-04-03T06:17:52.387296","MEAN_MOTION":14.80440796,"ECCENTRICITY":0.00625578,"INCLINATION":73.9977,"RA_OF_ASC_NODE":272.2333,"ARG_OF_PERICENTER":33.7163,"MEAN_ANOMALY":143.0456,"EPHEMERIS_TYPE":0,"CLASSIFICATION_TYPE":"U","NORAD_CAT_ID":38001,"ELEMENT_SET_NO":999,"REV_AT_EPOCH":76357,"BSTAR":0.0011019191,"MEAN_MOTION_DOT":8.686e-5,"MEAN_MOTION_DDOT":0},{"OBJECT_NAME":"COSMOS 2251 DEB","OBJECT_ID":"1993-036BRL","EPOCH":"2026-04-03T22:24:18.668160","MEAN_MOTION":13.63132656,"ECCENTRICITY":0.03476166,"INCLINATION":73.9525,"RA_OF_ASC_NODE":82.1296,"ARG_OF_PERICENTER":37.8068,"MEAN_ANOMALY":350.4921,"EPHEMERIS_TYPE":0,"CLASSIFICATION_TYPE":"U","NORAD_CAT_ID":38054,"ELEMENT_SET_NO":999,"REV_AT_EPOCH":68708,"BSTAR":0.0063948745,"MEAN_MOTION_DOT":7.527e-5,"MEAN_MOTION_DDOT":0},{"OBJECT_NAME":"COSMOS 2251 DEB","OBJECT_ID":"1993-036BRM","EPOCH":"2026-04-01T11:21:22.154976","MEAN_MOTION":14.78505576,"ECCENTRICITY":0.00629495,"INCLINATION":74.0113,"RA_OF_ASC_NODE":351.0008,"ARG_OF_PERICENTER":93.2352,"MEAN_ANOMALY":84.053,"EPHEMERIS_TYPE":0,"CLASSIFICATION_TYPE":"U","NORAD_CAT_ID":38055,"ELEMENT_SET_NO":999,"REV_AT_EPOCH":62303,"BSTAR":0.00076426104,"MEAN_MOTION_DOT":5.739e-5,"MEAN_MOTION_DDOT":0},{"OBJECT_NAME":"COSMOS 2251 DEB","OBJECT_ID":"1993-036BRN","EPOCH":"2026-03-31T23:47:38.198112","MEAN_MOTION":13.89704747,"ECCENTRICITY":0.02727867,"INCLINATION":73.9174,"RA_OF_ASC_NODE":88.9457,"ARG_OF_PERICENTER":54.344,"MEAN_ANOMALY":308.2756,"EPHEMERIS_TYPE":0,"CLASSIFICATION_TYPE":"U","NORAD_CAT_ID":38056,"ELEMENT_SET_NO":999,"REV_AT_EPOCH":65791,"BSTAR":0.0039619359,"MEAN_MOTION_DOT":6.537e-5,"MEAN_MOTION_DDOT":0},{"OBJECT_NAME":"COSMOS 2251 DEB","OBJECT_ID":"1993-036BRS","EPOCH":"2026-04-03T08:52:30.900576","MEAN_MOTION":14.64510038,"ECCENTRICITY":0.00584407,"INCLINATION":74.0402,"RA_OF_ASC_NODE":80.9286,"ARG_OF_PERICENTER":161.6946,"MEAN_ANOMALY":198.6345,"EPHEMERIS_TYPE":0,"CLASSIFICATION_TYPE":"U","NORAD_CAT_ID":38060,"ELEMENT_SET_NO":999,"REV_AT_EPOCH":73598,"BSTAR":0.00068057009,"MEAN_MOTION_DOT":3.669e-5,"MEAN_MOTION_DDOT":0},{"OBJECT_NAME":"COSMOS 2251 DEB","OBJECT_ID":"1993-036BRU","EPOCH":"2026-04-03T06:31:39.252576","MEAN_MOTION":15.01277775,"ECCENTRICITY":0.0016452,"INCLINATION":74.0062,"RA_OF_ASC_NODE":64.0797,"ARG_OF_PERICENTER":190.6846,"MEAN_ANOMALY":236.4671,"EPHEMERIS_TYPE":0,"CLASSIFICATION_TYPE":"U","NORAD_CAT_ID":38062,"ELEMENT_SET_NO":999,"REV_AT_EPOCH":64700,"BSTAR":0.0042024,"MEAN_MOTION_DOT":0.00054588,"MEAN_MOTION_DDOT":0}]
